{
    "CCSDS_OMM_VERS": "3.0",
    "COMMENT": "GENERATED VIA SPACE-TRACK.ORG API",
    "CREATION_DATE": "2025-11-20T11:24:48",
    "ORIGINATOR": "18 SPCS",
    "OBJECT_NAME": "COSMOS 2595 (GLONASS)",
    "OBJECT_ID": "2025-206B",
    "CENTER_NAME": "EARTH",
    "REF_FRAME": "TEME",
    "TIME_SYSTEM": "UTC",
    "MEAN_ELEMENT_THEORY": "SGP4",
    "EPOCH": "2025-11-20T03:56:33.583776",
    "MEAN_MOTION": "2.13100772",
    "ECCENTRICITY": "0.00139447",
    "INCLINATION": "64.7565",
    "RA_OF_ASC_NODE": "322.2593",
    "ARG_OF_PERICENTER": "303.9511",
    "MEAN_ANOMALY": "54.8129",
    "EPHEMERIS_TYPE": "0",
    "CLASSIFICATION_TYPE": "U",
    "NORAD_CAT_ID": "65590",
    "ELEMENT_SET_NO": "999",
    "REV_AT_EPOCH": "144",
    "BSTAR": "0.00000000000000",
    "MEAN_MOTION_DOT": "-0.00000049",
    "MEAN_MOTION_DDOT": "0.0000000000000",
    "SEMIMAJOR_AXIS": "25508.122",
    "PERIOD": "675.737",
    "APOAPSIS": "19165.558",
    "PERIAPSIS": "19094.417",
    "OBJECT_TYPE": "PAYLOAD",
    "RCS_SIZE": "LARGE",
    "COUNTRY_CODE": "CIS",
    "LAUNCH_DATE": "2025-09-13",
    "SITE": "PKMTR",
    "DECAY_DATE": null,
    "FILE": "4889748",
    "GP_ID": "303101159",
    "TLE_LINE0": "0 COSMOS 2595 (GLONASS)",
    "TLE_LINE1": "1 65590U 25206B   25324.16427759 -.00000049  00000-0  00000-0 0  9991",
    "TLE_LINE2": "2 65590  64.7565 322.2593 0013945 303.9511  54.8129  2.13100772  1441"
}